[{"OBJECT_NAME":"SEEDS II (CO-66)","OBJECT_ID":"2008-021J","EPOCH":"2026-03-09T22:06:22.421376","MEAN_MOTION":15.29097236,"ECCENTRICITY":0.00014475,"INCLINATION":97.7519,"RA_OF_ASC_NODE":62.3611,"ARG_OF_PERICENTER":359.2618,"MEAN_ANOMALY":0.8619,"EPHEMERIS_TYPE":0,"CLASSIFICATION_TYPE":"U","NORAD_CAT_ID":32791,"ELEMENT_SET_NO":999,"REV_AT_EPOCH":97210,"BSTAR":0.00084213052,"MEAN_MOTION_DOT":0.00023758,"MEAN_MOTION_DDOT":0},{"OBJECT_NAME":"STARLINK-31713","OBJECT_ID":"2024-062H","EPOCH":"2026-03-09T19:42:53.905536","MEAN_MOTION":15.30190826,"ECCENTRICITY":0.00010732,"INCLINATION":53.1586,"RA_OF_ASC_NODE":257.7442,"ARG_OF_PERICENTER":110.8629,"MEAN_ANOMALY":249.2487,"EPHEMERIS_TYPE":0,"CLASSIFICATION_TYPE":"U","NORAD_CAT_ID":59381,"ELEMENT_SET_NO":999,"REV_AT_EPOCH":10961,"BSTAR":2.1350691e-5,"MEAN_MOTION_DOT":2.73e-6,"MEAN_MOTION_DDOT":0}]
