SEEDS II (CO-66)        
1 32791U 08021J   26068.92109284  .00023758  00000+0  84213-3 0  9995
2 32791  97.7519  62.3611 0001448 359.2618   0.8619 15.29097235972108
STARLINK-31713          
1 59381U 24062H   26068.82145724  .00000273  00000+0  21351-4 0  9992
2 59381  53.1586 257.7442 0001073 110.8629 249.2487 15.30190826109613
